{
  "type": "FeatureCollection",
  "features": [
    {
      "type": "Feature",
      "properties": {
        "norad_id": 66807,
        "name": "STARLINK-36000",
        "group": "last-30-days",
        "lat": -28.845155209924297,
        "lon": 132.33399014742736,
        "alt_km": 416.9835166005787,
        "timestamp": "2025-12-26T16:33:54.330636+00:00",
        "meta_object_name": "STARLINK-36000",
        "meta_object_id": "2025-278S",
        "meta_epoch": "2025-12-26T06:00:02.999808",
        "meta_mean_motion": 15.50534262,
        "meta_eccentricity": 0.00015421,
        "meta_inclination": 43.0004,
        "meta_ra_of_asc_node": 171.1411,
        "meta_arg_of_pericenter": 265.0492,
        "meta_mean_anomaly": 109.9494,
        "meta_ephemeris_type": 0,
        "meta_classification_type": "U",
        "meta_norad_cat_id": 66807,
        "meta_element_set_no": 999,
        "meta_rev_at_epoch": 518,
        "meta_bstar": 0.00063565872,
        "meta_mean_motion_dot": 0.00037067,
        "meta_mean_motion_ddot": 0,
        "tle_line1": "1 66807U 25278S   25360.25003472  .00037067  00000+0  63566-3 0  9991",
        "tle_line2": "2 66807  43.0004 171.1411 0001542 265.0492 109.9494 15.50534262  5189"
      },
      "geometry": {
        "type": "Point",
        "coordinates": [
          132.33399014742736,
          -28.845155209924297
        ]
      }
    },
    {
      "type": "Feature",
      "properties": {
        "norad_id": 66808,
        "name": "STARLINK-36071",
        "group": "last-30-days",
        "lat": -27.777221698932223,
        "lon": 134.14173791810285,
        "alt_km": 416.9554087089373,
        "timestamp": "2025-12-26T16:33:54.330645+00:00",
        "meta_object_name": "STARLINK-36071",
        "meta_object_id": "2025-278T",
        "meta_epoch": "2025-12-26T06:00:02.999808",
        "meta_mean_motion": 15.50534266,
        "meta_eccentricity": 0.00016571,
        "meta_inclination": 43.0004,
        "meta_ra_of_asc_node": 171.1364,
        "meta_arg_of_pericenter": 261.0533,
        "meta_mean_anomaly": 115.8675,
        "meta_ephemeris_type": 0,
        "meta_classification_type": "U",
        "meta_norad_cat_id": 66808,
        "meta_element_set_no": 999,
        "meta_rev_at_epoch": 513,
        "meta_bstar": 0.00057615786,
        "meta_mean_motion_dot": 0.0003355,
        "meta_mean_motion_ddot": 0,
        "tle_line1": "1 66808U 25278T   25360.25003472  .00033550  00000+0  57616-3 0  9994",
        "tle_line2": "2 66808  43.0004 171.1364 0001657 261.0533 115.8675 15.50534266  5132"
      },
      "geometry": {
        "type": "Point",
        "coordinates": [
          134.14173791810285,
          -27.777221698932223
        ]
      }
    },
    {
      "type": "Feature",
      "properties": {
        "norad_id": 66809,
        "name": "STARLINK-35979",
        "group": "last-30-days",
        "lat": -24.449290225515934,
        "lon": 139.3427757210692,
        "alt_km": 416.6813260943918,
        "timestamp": "2025-12-26T16:33:54.330656+00:00",
        "meta_object_name": "STARLINK-35979",
        "meta_object_id": "2025-278U",
        "meta_epoch": "2025-12-26T06:00:02.999808",
        "meta_mean_motion": 15.50534069,
        "meta_eccentricity": 0.00017895,
        "meta_inclination": 43.0004,
        "meta_ra_of_asc_node": 171.1208,
        "meta_arg_of_pericenter": 265.4751,
        "meta_mean_anomaly": 117.1943,
        "meta_ephemeris_type": 0,
        "meta_classification_type": "U",
        "meta_norad_cat_id": 66809,
        "meta_element_set_no": 999,
        "meta_rev_at_epoch": 513,
        "meta_bstar": 0.0005883598,
        "meta_mean_motion_dot": 0.00034271,
        "meta_mean_motion_ddot": 0,
        "tle_line1": "1 66809U 25278U   25360.25003472  .00034271  00000+0  58836-3 0  9991",
        "tle_line2": "2 66809  43.0004 171.1208 0001789 265.4751 117.1943 15.50534069  5130"
      },
      "geometry": {
        "type": "Point",
        "coordinates": [
          139.3427757210692,
          -24.449290225515934
        ]
      }
    },
    {
      "type": "Feature",
      "properties": {
        "norad_id": 66810,
        "name": "STARLINK-36046",
        "group": "last-30-days",
        "lat": -26.6922896070749,
        "lon": 135.90464911975798,
        "alt_km": 416.8325948633001,
        "timestamp": "2025-12-26T16:33:54.330665+00:00",
        "meta_object_name": "STARLINK-36046",
        "meta_object_id": "2025-278V",
        "meta_epoch": "2025-12-26T06:00:02.999808",
        "meta_mean_motion": 15.505339,
        "meta_eccentricity": 0.00015521,
        "meta_inclination": 43.0003,
        "meta_ra_of_asc_node": 171.1325,
        "meta_arg_of_pericenter": 267.6022,
        "meta_mean_anomaly": 111.2252,
        "meta_ephemeris_type": 0,
        "meta_classification_type": "U",
        "meta_norad_cat_id": 66810,
        "meta_element_set_no": 999,
        "meta_rev_at_epoch": 490,
        "meta_bstar": 0.00074432322,
        "meta_mean_motion_dot": 0.00043497,
        "meta_mean_motion_ddot": 0,
        "tle_line1": "1 66810U 25278V   25360.25003472  .00043497  00000+0  74432-3 0  9993",
        "tle_line2": "2 66810  43.0003 171.1325 0001552 267.6022 111.2252 15.50533900  4909"
      },
      "geometry": {
        "type": "Point",
        "coordinates": [
          135.90464911975798,
          -26.6922896070749
        ]
      }
    },
    {
      "type": "Feature",
      "properties": {
        "norad_id": 66811,
        "name": "STARLINK-36045",
        "group": "last-30-days",
        "lat": -25.581265533719403,
        "lon": 137.6393984350939,
        "alt_km": 416.78847504778423,
        "timestamp": "2025-12-26T16:33:54.330673+00:00",
        "meta_object_name": "STARLINK-36045",
        "meta_object_id": "2025-278W",
        "meta_epoch": "2025-12-26T06:00:02.999808",
        "meta_mean_motion": 15.50535526,
        "meta_eccentricity": 0.00015779,
        "meta_inclination": 43.0003,
        "meta_ra_of_asc_node": 171.1268,
        "meta_arg_of_pericenter": 266.6003,
        "meta_mean_anomaly": 114.1457,
        "meta_ephemeris_type": 0,
        "meta_classification_type": "U",
        "meta_norad_cat_id": 66811,
        "meta_element_set_no": 999,
        "meta_rev_at_epoch": 513,
        "meta_bstar": 0.00067102332,
        "meta_mean_motion_dot": 0.0003916,
        "meta_mean_motion_ddot": 0,
        "tle_line1": "1 66811U 25278W   25360.25003472  .00039160  00000+0  67102-3 0  9992",
        "tle_line2": "2 66811  43.0003 171.1268 0001577 266.6003 114.1457 15.50535526  5132"
      },
      "geometry": {
        "type": "Point",
        "coordinates": [
          137.6393984350939,
          -25.581265533719403
        ]
      }
    },
    {
      "type": "Feature",
      "properties": {
        "norad_id": 66812,
        "name": "STARLINK-36054",
        "group": "last-30-days",
        "lat": -23.30079126211973,
        "lon": 141.01407051618338,
        "alt_km": 416.6772212561309,
        "timestamp": "2025-12-26T16:33:54.330684+00:00",
        "meta_object_name": "STARLINK-36054",
        "meta_object_id": "2025-278X",
        "meta_epoch": "2025-12-26T06:00:02.999808",
        "meta_mean_motion": 15.50533865,
        "meta_eccentricity": 0.00016438,
        "meta_inclination": 43.0004,
        "meta_ra_of_asc_node": 171.1169,
        "meta_arg_of_pericenter": 265.7621,
        "meta_mean_anomaly": 118.825,
        "meta_ephemeris_type": 0,
        "meta_classification_type": "U",
        "meta_norad_cat_id": 66812,
        "meta_element_set_no": 999,
        "meta_rev_at_epoch": 513,
        "meta_bstar": 0.00058481015,
        "meta_mean_motion_dot": 0.00034061,
        "meta_mean_motion_ddot": 0,
        "tle_line1": "1 66812U 25278X   25360.25003472  .00034061  00000+0  58481-3 0  9998",
        "tle_line2": "2 66812  43.0004 171.1169 0001643 265.7621 118.8250 15.50533865  5130"
      },
      "geometry": {
        "type": "Point",
        "coordinates": [
          141.01407051618338,
          -23.30079126211973
        ]
      }
    },
    {
      "type": "Feature",
      "properties": {
        "norad_id": 66813,
        "name": "STARLINK-36042",
        "group": "last-30-days",
        "lat": -22.13137086249372,
        "lon": 142.65964357189839,
        "alt_km": 416.7412883520374,
        "timestamp": "2025-12-26T16:33:54.330692+00:00",
        "meta_object_name": "STARLINK-36042",
        "meta_object_id": "2025-278Y",
        "meta_epoch": "2025-12-26T06:00:02.999808",
        "meta_mean_motion": 15.50534709,
        "meta_eccentricity": 0.00016069,
        "meta_inclination": 43.0004,
        "meta_ra_of_asc_node": 171.1114,
        "meta_arg_of_pericenter": 258.9199,
        "meta_mean_anomaly": 127.5871,
        "meta_ephemeris_type": 0,
        "meta_classification_type": "U",
        "meta_norad_cat_id": 66813,
        "meta_element_set_no": 999,
        "meta_rev_at_epoch": 513,
        "meta_bstar": 0.00057044613,
        "meta_mean_motion_dot": 0.00033213,
        "meta_mean_motion_ddot": 0,
        "tle_line1": "1 66813U 25278Y   25360.25003472  .00033213  00000+0  57045-3 0  9992",
        "tle_line2": "2 66813  43.0004 171.1114 0001606 258.9199 127.5871 15.50534709  5138"
      },
      "geometry": {
        "type": "Point",
        "coordinates": [
          142.65964357189839,
          -22.13137086249372
        ]
      }
    }
  ]
}